STARLINK-35340          
1 66022U 25232T   25317.30808588  .00072156  00000+0  17962-2 0  9995
2 66022  53.1596 286.1482 0000895 115.0218 245.0879 15.39631911  5591
STARLINK-35394          
1 66023U 25232U   25317.83335647  .00058992  00000+0  14742-2 0  9990
2 66023  53.1594 283.6209 0001220 114.5043 304.3316 15.39602724  4899
STARLINK-35410          
1 66024U 25232V   25317.83335647 -.00018671  00000+0 -45802-3 0  9995
2 66024  53.1584 283.5182 0001450  95.8605  14.5177 15.39613843  4897
STARLINK-35280          
1 66025U 25232W   25317.83335647 -.00021885  00000+0 -53850-3 0  9999
2 66025  53.1588 283.5692 0001047 130.2717 314.3174 15.39631755  4821
STARLINK-34812          
1 66026U 25232X   25317.83335647 -.00028653  00000+0 -70903-3 0  9998
2 66026  53.1580 283.4675 0001443 103.9401  32.2011 15.39619316  4837
STARLINK-35341          
1 66027U 25232Y   25317.34049726  .00076599  00000+0  19054-2 0  9994
2 66027  53.1592 285.6320 0001672 106.2985 253.8204 15.39626188  5605
STARLINK-35339          
1 66028U 25232Z   25317.83335647 -.00010022  00000+0 -24101-3 0  9990
2 66028  53.1588 283.2581 0001139 100.1140 139.0460 15.39606943  4827
STARLINK-35399          
1 66029U 25232AA  25317.83335647  .00001518  00000+0  47954-4 0  9991
2 66029  53.1591 283.2068 0001272  86.7734 178.1522 15.39595204  4828
STARLINK-35431          
1 66030U 25232AB  25317.83335647  .00126282  00000+0  31183-2 0  9994
2 66030  53.1597 283.1549 0001190  71.3179 219.2512 15.39587690  4827
STARLINK-35326          
1 66031U 25232AC  25317.63327150  .00167015  00000+0  29484-2 0  9993
2 66031  53.1592 283.9011 0001916  68.5850 291.5363 15.49297053  5656
STARLINK-35311          
1 66032U 25232AD  25317.63292338  .00128407  00000+0  22750-2 0  9994
2 66032  53.1598 283.8992 0000591 100.1265 259.9811 15.49359057  5650
QIANFAN-91              
1 66033U 25233A   25317.71031767  .00001723  00000+0  75551-3 0  9991
2 66033  88.9902  65.3671 0018726 132.0453 228.2336 14.23149975  3909
