CCSDS_OMM_VERS = 2.0
CREATION_DATE  = 
ORIGINATOR     = 

OBJECT_NAME    = STARLINK-35340
OBJECT_ID      = 2025-232T
CENTER_NAME    = EARTH
REF_FRAME      = TEME
TIME_SYSTEM    = UTC
MEAN_ELEMENT_THEORY = SGP/SGP4

EPOCH          = 2025-11-13T07:23:38.620032
MEAN_MOTION    = 15.39631911
ECCENTRICITY   = .0000895
INCLINATION    = 53.1596
RA_OF_ASC_NODE = 286.1482
ARG_OF_PERICENTER = 115.0218
MEAN_ANOMALY   = 245.0879

EPHEMERIS_TYPE = 0
CLASSIFICATION_TYPE = U
NORAD_CAT_ID   = 66022
ELEMENT_SET_NO = 999
REV_AT_EPOCH   = 559
BSTAR          = .17962E-2
MEAN_MOTION_DOT = .72156E-3
MEAN_MOTION_DDOT = 0

CCSDS_OMM_VERS = 2.0
CREATION_DATE  = 
ORIGINATOR     = 

OBJECT_NAME    = STARLINK-35394
OBJECT_ID      = 2025-232U
CENTER_NAME    = EARTH
REF_FRAME      = TEME
TIME_SYSTEM    = UTC
MEAN_ELEMENT_THEORY = SGP/SGP4

EPOCH          = 2025-11-13T20:00:01.999008
MEAN_MOTION    = 15.39602724
ECCENTRICITY   = .000122
INCLINATION    = 53.1594
RA_OF_ASC_NODE = 283.6209
ARG_OF_PERICENTER = 114.5043
MEAN_ANOMALY   = 304.3316

EPHEMERIS_TYPE = 0
CLASSIFICATION_TYPE = U
NORAD_CAT_ID   = 66023
ELEMENT_SET_NO = 999
REV_AT_EPOCH   = 489
BSTAR          = .14742E-2
MEAN_MOTION_DOT = .58992E-3
MEAN_MOTION_DDOT = 0

CCSDS_OMM_VERS = 2.0
CREATION_DATE  = 
ORIGINATOR     = 

OBJECT_NAME    = STARLINK-35410
OBJECT_ID      = 2025-232V
CENTER_NAME    = EARTH
REF_FRAME      = TEME
TIME_SYSTEM    = UTC
MEAN_ELEMENT_THEORY = SGP/SGP4

EPOCH          = 2025-11-13T20:00:01.999008
MEAN_MOTION    = 15.39613843
ECCENTRICITY   = .000145
INCLINATION    = 53.1584
RA_OF_ASC_NODE = 283.5182
ARG_OF_PERICENTER = 95.8605
MEAN_ANOMALY   = 14.5177

EPHEMERIS_TYPE = 0
CLASSIFICATION_TYPE = U
NORAD_CAT_ID   = 66024
ELEMENT_SET_NO = 999
REV_AT_EPOCH   = 489
BSTAR          = -.45802E-3
MEAN_MOTION_DOT = -.18671E-3
MEAN_MOTION_DDOT = 0

CCSDS_OMM_VERS = 2.0
CREATION_DATE  = 
ORIGINATOR     = 

OBJECT_NAME    = STARLINK-35280
OBJECT_ID      = 2025-232W
CENTER_NAME    = EARTH
REF_FRAME      = TEME
TIME_SYSTEM    = UTC
MEAN_ELEMENT_THEORY = SGP/SGP4

EPOCH          = 2025-11-13T20:00:01.999008
MEAN_MOTION    = 15.39631755
ECCENTRICITY   = .0001047
INCLINATION    = 53.1588
RA_OF_ASC_NODE = 283.5692
ARG_OF_PERICENTER = 130.2717
MEAN_ANOMALY   = 314.3174

EPHEMERIS_TYPE = 0
CLASSIFICATION_TYPE = U
NORAD_CAT_ID   = 66025
ELEMENT_SET_NO = 999
REV_AT_EPOCH   = 482
BSTAR          = -.5385E-3
MEAN_MOTION_DOT = -.21885E-3
MEAN_MOTION_DDOT = 0

CCSDS_OMM_VERS = 2.0
CREATION_DATE  = 
ORIGINATOR     = 

OBJECT_NAME    = STARLINK-34812
OBJECT_ID      = 2025-232X
CENTER_NAME    = EARTH
REF_FRAME      = TEME
TIME_SYSTEM    = UTC
MEAN_ELEMENT_THEORY = SGP/SGP4

EPOCH          = 2025-11-13T20:00:01.999008
MEAN_MOTION    = 15.39619316
ECCENTRICITY   = .0001443
INCLINATION    = 53.1580
RA_OF_ASC_NODE = 283.4675
ARG_OF_PERICENTER = 103.9401
MEAN_ANOMALY   = 32.2011

EPHEMERIS_TYPE = 0
CLASSIFICATION_TYPE = U
NORAD_CAT_ID   = 66026
ELEMENT_SET_NO = 999
REV_AT_EPOCH   = 483
BSTAR          = -.70903E-3
MEAN_MOTION_DOT = -.28653E-3
MEAN_MOTION_DDOT = 0

CCSDS_OMM_VERS = 2.0
CREATION_DATE  = 
ORIGINATOR     = 

OBJECT_NAME    = STARLINK-35341
OBJECT_ID      = 2025-232Y
CENTER_NAME    = EARTH
REF_FRAME      = TEME
TIME_SYSTEM    = UTC
MEAN_ELEMENT_THEORY = SGP/SGP4

EPOCH          = 2025-11-13T08:10:18.963264
MEAN_MOTION    = 15.39626188
ECCENTRICITY   = .0001672
INCLINATION    = 53.1592
RA_OF_ASC_NODE = 285.6320
ARG_OF_PERICENTER = 106.2985
MEAN_ANOMALY   = 253.8204

EPHEMERIS_TYPE = 0
CLASSIFICATION_TYPE = U
NORAD_CAT_ID   = 66027
ELEMENT_SET_NO = 999
REV_AT_EPOCH   = 560
BSTAR          = .19054E-2
MEAN_MOTION_DOT = .76599E-3
MEAN_MOTION_DDOT = 0

CCSDS_OMM_VERS = 2.0
CREATION_DATE  = 
ORIGINATOR     = 

OBJECT_NAME    = STARLINK-35339
OBJECT_ID      = 2025-232Z
CENTER_NAME    = EARTH
REF_FRAME      = TEME
TIME_SYSTEM    = UTC
MEAN_ELEMENT_THEORY = SGP/SGP4

EPOCH          = 2025-11-13T20:00:01.999008
MEAN_MOTION    = 15.39606943
ECCENTRICITY   = .0001139
INCLINATION    = 53.1588
RA_OF_ASC_NODE = 283.2581
ARG_OF_PERICENTER = 100.1140
MEAN_ANOMALY   = 139.0460

EPHEMERIS_TYPE = 0
CLASSIFICATION_TYPE = U
NORAD_CAT_ID   = 66028
ELEMENT_SET_NO = 999
REV_AT_EPOCH   = 482
BSTAR          = -.24101E-3
MEAN_MOTION_DOT = -.10022E-3
MEAN_MOTION_DDOT = 0

CCSDS_OMM_VERS = 2.0
CREATION_DATE  = 
ORIGINATOR     = 

OBJECT_NAME    = STARLINK-35399
OBJECT_ID      = 2025-232AA
CENTER_NAME    = EARTH
REF_FRAME      = TEME
TIME_SYSTEM    = UTC
MEAN_ELEMENT_THEORY = SGP/SGP4

EPOCH          = 2025-11-13T20:00:01.999008
MEAN_MOTION    = 15.39595204
ECCENTRICITY   = .0001272
INCLINATION    = 53.1591
RA_OF_ASC_NODE = 283.2068
ARG_OF_PERICENTER = 86.7734
MEAN_ANOMALY   = 178.1522

EPHEMERIS_TYPE = 0
CLASSIFICATION_TYPE = U
NORAD_CAT_ID   = 66029
ELEMENT_SET_NO = 999
REV_AT_EPOCH   = 482
BSTAR          = .47954E-4
MEAN_MOTION_DOT = .1518E-4
MEAN_MOTION_DDOT = 0

CCSDS_OMM_VERS = 2.0
CREATION_DATE  = 
ORIGINATOR     = 

OBJECT_NAME    = STARLINK-35431
OBJECT_ID      = 2025-232AB
CENTER_NAME    = EARTH
REF_FRAME      = TEME
TIME_SYSTEM    = UTC
MEAN_ELEMENT_THEORY = SGP/SGP4

EPOCH          = 2025-11-13T20:00:01.999008
MEAN_MOTION    = 15.39587690
ECCENTRICITY   = .000119
INCLINATION    = 53.1597
RA_OF_ASC_NODE = 283.1549
ARG_OF_PERICENTER = 71.3179
MEAN_ANOMALY   = 219.2512

EPHEMERIS_TYPE = 0
CLASSIFICATION_TYPE = U
NORAD_CAT_ID   = 66030
ELEMENT_SET_NO = 999
REV_AT_EPOCH   = 482
BSTAR          = .31183E-2
MEAN_MOTION_DOT = .126282E-2
MEAN_MOTION_DDOT = 0

CCSDS_OMM_VERS = 2.0
CREATION_DATE  = 
ORIGINATOR     = 

OBJECT_NAME    = STARLINK-35326
OBJECT_ID      = 2025-232AC
CENTER_NAME    = EARTH
REF_FRAME      = TEME
TIME_SYSTEM    = UTC
MEAN_ELEMENT_THEORY = SGP/SGP4

EPOCH          = 2025-11-13T15:11:54.657600
MEAN_MOTION    = 15.49297053
ECCENTRICITY   = .0001916
INCLINATION    = 53.1592
RA_OF_ASC_NODE = 283.9011
ARG_OF_PERICENTER = 68.5850
MEAN_ANOMALY   = 291.5363

EPHEMERIS_TYPE = 0
CLASSIFICATION_TYPE = U
NORAD_CAT_ID   = 66031
ELEMENT_SET_NO = 999
REV_AT_EPOCH   = 565
BSTAR          = .29484E-2
MEAN_MOTION_DOT = .167015E-2
MEAN_MOTION_DDOT = 0

CCSDS_OMM_VERS = 2.0
CREATION_DATE  = 
ORIGINATOR     = 

OBJECT_NAME    = STARLINK-35311
OBJECT_ID      = 2025-232AD
CENTER_NAME    = EARTH
REF_FRAME      = TEME
TIME_SYSTEM    = UTC
MEAN_ELEMENT_THEORY = SGP/SGP4

EPOCH          = 2025-11-13T15:11:24.580032
MEAN_MOTION    = 15.49359057
ECCENTRICITY   = .0000591
INCLINATION    = 53.1598
RA_OF_ASC_NODE = 283.8992
ARG_OF_PERICENTER = 100.1265
MEAN_ANOMALY   = 259.9811

EPHEMERIS_TYPE = 0
CLASSIFICATION_TYPE = U
NORAD_CAT_ID   = 66032
ELEMENT_SET_NO = 999
REV_AT_EPOCH   = 565
BSTAR          = .2275E-2
MEAN_MOTION_DOT = .128407E-2
MEAN_MOTION_DDOT = 0

CCSDS_OMM_VERS = 2.0
CREATION_DATE  = 
ORIGINATOR     = 

OBJECT_NAME    = QIANFAN-91
OBJECT_ID      = 2025-233A
CENTER_NAME    = EARTH
REF_FRAME      = TEME
TIME_SYSTEM    = UTC
MEAN_ELEMENT_THEORY = SGP/SGP4

EPOCH          = 2025-11-13T17:02:51.446688
MEAN_MOTION    = 14.23149975
ECCENTRICITY   = .0018726
INCLINATION    = 88.9902
RA_OF_ASC_NODE = 65.3671
ARG_OF_PERICENTER = 132.0453
MEAN_ANOMALY   = 228.2336

EPHEMERIS_TYPE = 0
CLASSIFICATION_TYPE = U
NORAD_CAT_ID   = 66033
ELEMENT_SET_NO = 999
REV_AT_EPOCH   = 390
BSTAR          = .75551E-3
MEAN_MOTION_DOT = .1723E-4
MEAN_MOTION_DDOT = 0

